GLOBALSTAR M094         
1 39074U 13005C   25347.29110422 -.00000092  00000+0  67709-4 0  9998
2 39074  51.9976 356.7982 0000145  18.9853 341.1019 12.62265323594993
GLOBALSTAR M096         
1 39075U 13005D   25347.30416139 -.00000098  00000+0  32922-4 0  9990
2 39075  52.0089  45.4114 0000264 145.3126 214.7758 12.62269350593910
GLOBALSTAR M078         
1 39076U 13005E   25347.11981163 -.00000091  00000+0  73016-4 0  9996
2 39076  51.9858 130.2415 0000967 162.4591 197.6309 12.62272444592510
GLOBALSTAR M095         
1 39077U 13005F   25347.06685977 -.00000089  00000+0  80422-4 0  9991
2 39077  52.0061 127.7417 0000630 127.9501 232.1422 12.62267287592369
GLOBALSTAR M087         
1 52888U 22064A   25347.23825680 -.00000079  00000+0  13792-3 0  9991
2 52888  52.0004 268.5657 0000586  43.8890 316.2023 12.62261380167657
